NORAD_CAT_ID,OBJECT_NAME,OBJECT_TYPE,EPOCH,MEAN_MOTION,ECCENTRICITY,INCLINATION,RA_OF_ASC_NODE,ARG_OF_PERICENTER,MEAN_ANOMALY,BSTAR,MEAN_MOTION_DOT,MEAN_MOTION_DDOT,TLE_LINE0,TLE_LINE1,TLE_LINE2,SEMIMAJOR_AXIS,PERIOD,APOGEE,PERIGEE,DECAYED
52692.0,STARLINK-3993,PAYLOAD,2023-10-26 16:00:02,15.08845985,0.0001589,53.2182,67.0882,86.023,274.0944,0.00010417,1.37e-05,0.0,0 STARLINK-3993,1 52692U 22053AN  23299.66669283  .00001370  00000-0  10417-3 0  9994,2 52692  53.2182  67.0882 0001589  86.0230 274.0944 15.08845985 80168,6917.862,95.437,540.826,538.628,0.0
52692.0,STARLINK-3993,PAYLOAD,2023-10-27 01:32:21,15.08834443,0.0001094,53.2183,65.3029,86.1434,273.9683,0.00018187,2.607e-05,0.0,0 STARLINK-3993,1 52692U 22053AN  23300.06413414  .00002607  00000-0  18187-3 0  9990,2 52692  53.2183  65.3029 0001094  86.1434 273.9683 15.08834443 80223,6917.897,95.438,540.519,539.006,0.0
52692.0,STARLINK-3993,PAYLOAD,2023-10-27 07:53:53,15.08840553,0.0001425,53.2186,64.1157,90.8543,269.2612,9.0601e-05,1.154e-05,0.0,0 STARLINK-3993,1 52692U 22053AN  23300.32909560  .00001154  00000-0  90601-4 0  9999,2 52692  53.2186  64.1157 0001425  90.8543 269.2612 15.08840553 80663,6917.879,95.438,540.729,538.758,0.0
52692.0,STARLINK-3993,PAYLOAD,2023-10-27 17:26:12,15.08842172,0.0001246,53.2182,62.3329,87.667,272.4465,0.00020517,2.979e-05,0.0,0 STARLINK-3993,1 52692U 22053AN  23300.72652990  .00002979  00000-0  20517-3 0  9999,2 52692  53.2182  62.3329 0001246  87.6670 272.4465 15.08842172 80724,6917.874,95.437,540.601,538.877,0.0
52692.0,STARLINK-3993,PAYLOAD,2023-10-28 12:30:51,15.08829055,0.0001995,53.2174,58.764,79.2532,280.8685,-4.6166e-05,-1.023e-05,0.0,0 STARLINK-3993,1 52692U 22053AN  23301.52143118 -.00001023  00000-0 -46166-4 0  9995,2 52692  53.2174  58.7640 0001995  79.2532 280.8685 15.08829055 80446,6917.914,95.438,541.159,538.399,0.0
52692.0,STARLINK-3993,PAYLOAD,2023-10-28 14:06:14,15.08830017,0.0001312,53.2181,58.4646,82.7996,277.3145,-2.2643e-05,-6.48e-06,0.0,0 STARLINK-3993,1 52692U 22053AN  23301.58766873 -.00000648  00000-0 -22643-4 0  9996,2 52692  53.2181  58.4646 0001312  82.7996 277.3145 15.08830017 80850,6917.911,95.438,540.684,538.868,0.0
52692.0,STARLINK-3993,PAYLOAD,2023-10-28 15:41:37,15.08838992,0.0001352,53.2186,58.17,81.8123,278.3023,-1.3665e-05,-5.05e-06,0.0,0 STARLINK-3993,1 52692U 22053AN  23301.65390346 -.00000505  00000-0 -13665-4 0  9998,2 52692  53.2186  58.1700 0001352  81.8123 278.3023 15.08838992 80462,6917.883,95.438,540.684,538.813,0.0
52692.0,STARLINK-3993,PAYLOAD,2023-10-29 12:21:35,15.08866756,0.0001743,53.2206,54.3024,93.73,266.3891,0.0001469,2.052e-05,0.0,0 STARLINK-3993,1 52692U 22053AN  23302.51499882  .00002052  00000-0  14690-3 0  9994,2 52692  53.2206  54.3024 0001743  93.7300 266.3891 15.08866756 80598,6917.799,95.436,540.869,538.458,0.0
52692.0,STARLINK-3993,PAYLOAD,2023-10-29 13:56:58,15.0887117,0.0001122,53.2204,54.0044,88.4216,271.6905,0.00015846,2.237e-05,0.0,0 STARLINK-3993,1 52692U 22053AN  23302.58123475  .00002237  00000-0  15846-3 0  9992,2 52692  53.2204  54.0044 0001122  88.4216 271.6905 15.08871170 81001,6917.785,95.436,540.426,538.874,0.0
52692.0,STARLINK-3993,PAYLOAD,2023-10-30 12:12:25,15.08821593,0.0001498,53.2204,49.842,101.2294,258.8867,4.1851e-05,3.78e-06,0.0,0 STARLINK-3993,1 52692U 22053AN  23303.50862865  .00000378  00000-0  41851-4 0  9998,2 52692  53.2204  49.8420 0001498 101.2294 258.8867 15.08821593 80745,6917.937,95.439,540.838,538.765,0.0
52692.0,STARLINK-3993,PAYLOAD,2023-10-30 13:47:48,15.08820982,0.0001221,53.219,49.5447,89.9784,270.1348,6.7124e-05,7.8e-06,0.0,0 STARLINK-3993,1 52692U 22053AN  23303.57486886  .00000780  00000-0  67124-4 0  9998,2 52692  53.2190  49.5447 0001221  89.9784 270.1348 15.08820982 81153,6917.939,95.439,540.648,538.959,0.0
52692.0,STARLINK-3993,PAYLOAD,2023-10-31 13:38:34,15.08849042,0.0001296,53.2186,45.0848,85.4617,274.6523,-0.00010337,-1.933e-05,0.0,0 STARLINK-3993,1 52692U 22053AN  23304.56845928 -.00001933  00000-0 -10337-3 0  9990,2 52692  53.2186  45.0848 0001296  85.4617 274.6523 15.08849042 80906,6917.853,95.437,540.614,538.821,0.0
52692.0,STARLINK-3993,PAYLOAD,2023-10-31 16:49:20,15.08851281,0.0001277,53.2176,44.4881,84.5725,275.5412,-8.9799e-05,-1.717e-05,0.0,0 STARLINK-3993,1 52692U 22053AN  23304.70093683 -.00001717  00000-0 -89799-4 0  9998,2 52692  53.2176  44.4881 0001277  84.5725 275.5412 15.08851281 81326,6917.846,95.437,540.594,538.827,0.0
52692.0,STARLINK-3993,PAYLOAD,2023-11-01 13:29:21,15.08836004,0.0001341,53.2185,40.6245,84.3377,275.7768,0.00026541,3.938e-05,0.0,0 STARLINK-3993,1 52692U 22053AN  23305.56205982  .00003938  00000-0  26541-3 0  9990,2 52692  53.2185  40.6245 0001341  84.3377 275.7768 15.08836004 81053,6917.893,95.438,540.685,538.83,0.0
52692.0,STARLINK-3993,PAYLOAD,2023-11-01 16:40:07,15.08845265,0.0001328,53.219,40.0283,82.1184,277.9959,0.00025016,3.696e-05,0.0,0 STARLINK-3993,1 52692U 22053AN  23305.69453521  .00003696  00000-0  25016-3 0  9995,2 52692  53.2190  40.0283 0001328  82.1184 277.9959 15.08845265 81473,6917.864,95.437,540.648,538.811,0.0
52692.0,STARLINK-3993,PAYLOAD,2023-11-01 23:01:41,15.08829299,0.0001637,53.2183,38.8388,87.1289,272.9891,0.00011113,1.481e-05,0.0,0 STARLINK-3993,1 52692U 22053AN  23305.95951101  .00001481  00000-0  11113-3 0  9994,2 52692  53.2183  38.8388 0001637  87.1289 272.9891 15.08829299 81110,6917.913,95.438,540.911,538.646,0.0
52692.0,STARLINK-3993,PAYLOAD,2023-11-02 13:20:09,15.08845422,0.0001376,53.2183,36.1635,94.8364,265.2786,0.00010411,1.37e-05,0.0,0 STARLINK-3993,1 52692U 22053AN  23306.55566212  .00001370  00000-0  10411-3 0  9993,2 52692  53.2183  36.1635 0001376  94.8364 265.2786 15.08845422 81209,6917.864,95.437,540.681,538.777,0.0
52692.0,STARLINK-3993,PAYLOAD,2023-11-02 22:52:28,15.08840069,0.0001387,53.218,34.3807,96.9928,263.1222,2.5729e-05,1.22e-06,0.0,0 STARLINK-3993,1 52692U 22053AN  23306.95310669  .00000122  00000-0  25729-4 0  9993,2 52692  53.2180  34.3807 0001387  96.9928 263.1222 15.08840069 81268,6917.88,95.438,540.705,538.786,0.0
52692.0,STARLINK-3993,PAYLOAD,2023-11-03 13:10:56,15.08847514,0.0001612,53.2198,31.7025,84.0391,276.0785,-7.4081e-06,-4.06e-06,0.0,0 STARLINK-3993,1 52692U 22053AN  23307.54926543 -.00000406  00000-0 -74081-5 0  9996,2 52692  53.2198  31.7025 0001612  84.0391 276.0785 15.08847514 81756,6917.857,95.437,540.838,538.607,0.0
52692.0,STARLINK-3993,PAYLOAD,2023-11-03 14:46:19,15.08849786,0.000165,53.2199,31.405,82.311,277.8069,1.5414e-05,-4.3e-07,0.0,0 STARLINK-3993,1 52692U 22053AN  23307.61550341 -.00000043  00000-0  15414-4 0  9993,2 52692  53.2199  31.4050 0001650  82.3110 277.8069 15.08849786 81762,6917.85,95.437,540.857,538.574,0.0
52692.0,STARLINK-3993,PAYLOAD,2023-11-04 09:50:58,15.08828943,0.0001323,53.2192,27.8379,84.8288,275.2855,5.731e-05,6.24e-06,0.0,0 STARLINK-3993,1 52692U 22053AN  23308.41039691  .00000624  00000-0  57310-4 0  9997,2 52692  53.2192  27.8379 0001323  84.8288 275.2855 15.08828943 81484,6917.914,95.438,540.694,538.864,0.0
52692.0,STARLINK-3993,PAYLOAD,2023-11-04 13:01:44,15.0883861,0.0001511,53.2188,27.2409,92.2137,267.9028,4.4892e-05,4.27e-06,0.0,0 STARLINK-3993,1 52692U 22053AN  23308.54287127  .00000427  00000-0  44892-4 0  9992,2 52692  53.2188  27.2409 0001511  92.2137 267.9028 15.08838610 81901,6917.885,95.438,540.795,538.704,0.0
52692.0,STARLINK-3993,PAYLOAD,2023-11-05 11:17:07,15.08848483,0.0001367,53.2169,23.0824,97.3142,262.8005,0.00023483,3.452e-05,0.0,0 STARLINK-3993,1 52692U 22053AN  23309.47022361  .00003452  00000-0  23483-3 0  9995,2 52692  53.2169  23.0824 0001367  97.3142 262.8005 15.08848483 81645,6917.854,95.437,540.665,538.774,0.0
52692.0,STARLINK-3993,PAYLOAD,2023-11-05 22:24:48,15.08854723,0.0001472,53.2192,20.9964,83.5528,276.5631,0.00022678,3.324e-05,0.0,0 STARLINK-3993,1 52692U 22053AN  23309.93389860  .00003324  00000-0  22678-3 0  9999,2 52692  53.2192  20.9964 0001472  83.5528 276.5631 15.08854723 82118,6917.835,95.437,540.719,538.682,0.0
52692.0,STARLINK-3993,PAYLOAD,2023-11-06 11:07:53,15.08868526,0.0001462,53.2182,18.6197,69.0855,291.0293,0.00038318,5.82e-05,0.0,0 STARLINK-3993,1 52692U 22053AN  23310.46380876  .00005820  00000-0  38318-3 0  9998,2 52692  53.2182  18.6197 0001462  69.0855 291.0293 15.08868526 81795,6917.793,95.436,540.67,538.647,0.0
52692.0,STARLINK-3993,PAYLOAD,2023-11-06 22:15:39,15.08790715,0.0002151,53.2197,16.5401,71.6823,288.4403,-0.00068067,-0.0001109,0.0,0 STARLINK-3993,1 52692U 22053AN  23310.92753779 -.00011090  00000-0 -68067-3 0  9997,2 52692  53.2197  16.5401 0002151  71.6823 288.4403 15.08790715 82266,6918.031,95.441,541.384,538.408,0.0
52692.0,STARLINK-3993,PAYLOAD,2023-11-07 10:58:42,15.08843516,0.0001527,53.2187,14.1595,91.2913,268.8254,8.388e-05,1.047e-05,0.0,0 STARLINK-3993,1 52692U 22053AN  23311.45743782  .00001047  00000-0  83880-4 0  9999,2 52692  53.2187  14.1595 0001527  91.2913 268.8254 15.08843516 81945,6917.87,95.437,540.791,538.678,0.0
52692.0,STARLINK-3993,PAYLOAD,2023-11-08 04:27:57,15.08836035,0.0001498,53.2177,10.8898,78.8931,281.2229,0.00020652,3e-05,0.0,0 STARLINK-3993,1 52692U 22053AN  23312.18608623  .00003000  00000-0  20652-3 0  9992,2 52692  53.2177  10.8898 0001498  78.8931 281.2229 15.08836035 82053,6917.893,95.438,540.794,538.721,0.0
52692.0,STARLINK-3993,PAYLOAD,2023-11-08 10:49:30,15.08845933,0.0001653,53.219,9.7042,84.8269,275.2912,0.00022541,3.302e-05,0.0,0 STARLINK-3993,1 52692U 22053AN  23312.45104175  .00003302  00000-0  22541-3 0  9999,2 52692  53.2190   9.7042 0001653  84.8269 275.2912 15.08845933 82093,6917.862,95.437,540.871,538.584,0.0
52692.0,STARLINK-3993,PAYLOAD,2023-11-08 20:21:49,15.08840138,0.0001632,53.2197,7.9203,96.0552,264.0626,0.00035728,5.403e-05,0.0,0 STARLINK-3993,1 52692U 22053AN  23312.84848457  .00005403  00000-0  35728-3 0  9995,2 52692  53.2197   7.9203 0001632  96.0552 264.0626 15.08840138 82557,6917.88,95.438,540.874,538.616,0.0
